[{"OBJECT_NAME":"YAOGAN-36 02B","OBJECT_ID":"2022-133B","EPOCH":"2026-03-09T22:42:31.775904","MEAN_MOTION":15.30199518,"ECCENTRICITY":0.00056841,"INCLINATION":34.9983,"RA_OF_ASC_NODE":22.5268,"ARG_OF_PERICENTER":273.0351,"MEAN_ANOMALY":86.9715,"EPHEMERIS_TYPE":0,"CLASSIFICATION_TYPE":"U","NORAD_CAT_ID":54043,"ELEMENT_SET_NO":999,"REV_AT_EPOCH":18962,"BSTAR":0.00051218814,"MEAN_MOTION_DOT":0.00015352,"MEAN_MOTION_DDOT":0},{"OBJECT_NAME":"STARLINK-35117","OBJECT_ID":"2025-210L","EPOCH":"2026-03-09T22:20:03.113376","MEAN_MOTION":15.30194126,"ECCENTRICITY":9.174e-5,"INCLINATION":53.1593,"RA_OF_ASC_NODE":306.2643,"ARG_OF_PERICENTER":96.9851,"MEAN_ANOMALY":263.1254,"EPHEMERIS_TYPE":0,"CLASSIFICATION_TYPE":"U","NORAD_CAT_ID":65632,"ELEMENT_SET_NO":999,"REV_AT_EPOCH":2776,"BSTAR":0.00095663604,"MEAN_MOTION_DOT":0.00028076,"MEAN_MOTION_DDOT":0}]
